[{"OBJECT_NAME":"HELIOS 1B","OBJECT_ID":"1999-064A","EPOCH":"2026-03-26T15:54:17.845056","MEAN_MOTION":14.8776151,"ECCENTRICITY":0.0001942,"INCLINATION":98.1673,"RA_OF_ASC_NODE":348.4033,"ARG_OF_PERICENTER":52.9684,"MEAN_ANOMALY":307.1709,"EPHEMERIS_TYPE":0,"CLASSIFICATION_TYPE":"U","NORAD_CAT_ID":25977,"ELEMENT_SET_NO":999,"REV_AT_EPOCH":68778,"BSTAR":0.00018984,"MEAN_MOTION_DOT":1.674e-5,"MEAN_MOTION_DDOT":0},{"OBJECT_NAME":"TERRA","OBJECT_ID":"1999-068A","EPOCH":"2026-03-26T20:12:20.769120","MEAN_MOTION":14.61032421,"ECCENTRICITY":0.0003518,"INCLINATION":97.9557,"RA_OF_ASC_NODE":138.6184,"ARG_OF_PERICENTER":115.6326,"MEAN_ANOMALY":332.5406,"EPHEMERIS_TYPE":0,"CLASSIFICATION_TYPE":"U","NORAD_CAT_ID":25994,"ELEMENT_SET_NO":999,"REV_AT_EPOCH":39758,"BSTAR":9.886e-5,"MEAN_MOTION_DOT":4.41e-6,"MEAN_MOTION_DDOT":0},{"OBJECT_NAME":"SL-16 R/B","OBJECT_ID":"2000-006B","EPOCH":"2026-03-26T07:59:26.427264","MEAN_MOTION":14.15825529,"ECCENTRICITY":0.0015887,"INCLINATION":71.0014,"RA_OF_ASC_NODE":62.8385,"ARG_OF_PERICENTER":163.8424,"MEAN_ANOMALY":196.3209,"EPHEMERIS_TYPE":0,"CLASSIFICATION_TYPE":"U","NORAD_CAT_ID":26070,"ELEMENT_SET_NO":999,"REV_AT_EPOCH":35091,"BSTAR":0.00016805,"MEAN_MOTION_DOT":2.83e-6,"MEAN_MOTION_DDOT":0},{"OBJECT_NAME":"TITAN 4B R/B","OBJECT_ID":"2000-047B","EPOCH":"2026-03-26T18:57:50.770080","MEAN_MOTION":15.0971991,"ECCENTRICITY":0.0039794,"INCLINATION":67.9912,"RA_OF_ASC_NODE":352.4204,"ARG_OF_PERICENTER":15.3911,"MEAN_ANOMALY":344.8438,"EPHEMERIS_TYPE":0,"CLASSIFICATION_TYPE":"U","NORAD_CAT_ID":26474,"ELEMENT_SET_NO":999,"REV_AT_EPOCH":39549,"BSTAR":0.00024937,"MEAN_MOTION_DOT":3.969e-5,"MEAN_MOTION_DDOT":0},{"OBJECT_NAME":"ENVISAT","OBJECT_ID":"2002-009A","EPOCH":"2026-03-26T20:20:54.365280","MEAN_MOTION":14.39042714,"ECCENTRICITY":0.0001222,"INCLINATION":98.3755,"RA_OF_ASC_NODE":39.0396,"ARG_OF_PERICENTER":81.5064,"MEAN_ANOMALY":298.9111,"EPHEMERIS_TYPE":0,"CLASSIFICATION_TYPE":"U","NORAD_CAT_ID":27386,"ELEMENT_SET_NO":999,"REV_AT_EPOCH":26164,"BSTAR":5.2945e-5,"MEAN_MOTION_DOT":1.21e-6,"MEAN_MOTION_DDOT":0},{"OBJECT_NAME":"IDEFIX & ARIANE 42P R/B","OBJECT_ID":"2002-021B","EPOCH":"2026-03-26T20:03:45.573696","MEAN_MOTION":14.3103748,"ECCENTRICITY":0.0012529,"INCLINATION":98.5889,"RA_OF_ASC_NODE":24.2393,"ARG_OF_PERICENTER":132.9462,"MEAN_ANOMALY":227.2774,"EPHEMERIS_TYPE":0,"CLASSIFICATION_TYPE":"U","NORAD_CAT_ID":27422,"ELEMENT_SET_NO":999,"REV_AT_EPOCH":24647,"BSTAR":0.00012742,"MEAN_MOTION_DOT":2.92e-6,"MEAN_MOTION_DDOT":0},{"OBJECT_NAME":"AQUA","OBJECT_ID":"2002-022A","EPOCH":"2026-03-26T20:34:15.483360","MEAN_MOTION":14.62014631,"ECCENTRICITY":0.0001043,"INCLINATION":98.4203,"RA_OF_ASC_NODE":53.5385,"ARG_OF_PERICENTER":117.75,"MEAN_ANOMALY":272.4317,"EPHEMERIS_TYPE":0,"CLASSIFICATION_TYPE":"U","NORAD_CAT_ID":27424,"ELEMENT_SET_NO":999,"REV_AT_EPOCH":27124,"BSTAR":0.0001964,"MEAN_MOTION_DOT":9.36e-6,"MEAN_MOTION_DDOT":0},{"OBJECT_NAME":"CZ-4B R/B","OBJECT_ID":"2002-024C","EPOCH":"2026-03-26T15:27:59.391360","MEAN_MOTION":14.14550576,"ECCENTRICITY":0.0049608,"INCLINATION":98.8803,"RA_OF_ASC_NODE":138.963,"ARG_OF_PERICENTER":336.0034,"MEAN_ANOMALY":187.835,"EPHEMERIS_TYPE":0,"CLASSIFICATION_TYPE":"U","NORAD_CAT_ID":27432,"ELEMENT_SET_NO":999,"REV_AT_EPOCH":23163,"BSTAR":4.1854e-5,"MEAN_MOTION_DOT":3.6e-7,"MEAN_MOTION_DDOT":0},{"OBJECT_NAME":"MIDORI II (ADEOS-II)","OBJECT_ID":"2002-056A","EPOCH":"2026-03-26T21:14:05.594208","MEAN_MOTION":14.29297736,"ECCENTRICITY":8.44e-5,"INCLINATION":98.7798,"RA_OF_ASC_NODE":44.4844,"ARG_OF_PERICENTER":23,"MEAN_ANOMALY":337.1219,"EPHEMERIS_TYPE":0,"CLASSIFICATION_TYPE":"U","NORAD_CAT_ID":27597,"ELEMENT_SET_NO":999,"REV_AT_EPOCH":21275,"BSTAR":0.00014676,"MEAN_MOTION_DOT":3.28e-6,"MEAN_MOTION_DDOT":0},{"OBJECT_NAME":"H-2A R/B","OBJECT_ID":"2002-056E","EPOCH":"2026-03-26T16:31:14.866464","MEAN_MOTION":14.337715,"ECCENTRICITY":0.0071317,"INCLINATION":98.3231,"RA_OF_ASC_NODE":45.4098,"ARG_OF_PERICENTER":110.5593,"MEAN_ANOMALY":68.5834,"EPHEMERIS_TYPE":0,"CLASSIFICATION_TYPE":"U","NORAD_CAT_ID":27601,"ELEMENT_SET_NO":999,"REV_AT_EPOCH":21654,"BSTAR":0.00011153,"MEAN_MOTION_DOT":2.78e-6,"MEAN_MOTION_DDOT":0},{"OBJECT_NAME":"CZ-4B R/B","OBJECT_ID":"2003-049C","EPOCH":"2026-03-26T10:30:33.244992","MEAN_MOTION":14.55034698,"ECCENTRICITY":0.0048143,"INCLINATION":98.6893,"RA_OF_ASC_NODE":81.0018,"ARG_OF_PERICENTER":179.2225,"MEAN_ANOMALY":180.9054,"EPHEMERIS_TYPE":0,"CLASSIFICATION_TYPE":"U","NORAD_CAT_ID":28059,"ELEMENT_SET_NO":999,"REV_AT_EPOCH":18903,"BSTAR":9.1214e-5,"MEAN_MOTION_DOT":3.48e-6,"MEAN_MOTION_DDOT":0},{"OBJECT_NAME":"CZ-2C R/B","OBJECT_ID":"2004-012C","EPOCH":"2026-03-26T14:40:31.802880","MEAN_MOTION":15.6655838,"ECCENTRICITY":0.0013144,"INCLINATION":97.7191,"RA_OF_ASC_NODE":152.5308,"ARG_OF_PERICENTER":241.46,"MEAN_ANOMALY":118.5336,"EPHEMERIS_TYPE":0,"CLASSIFICATION_TYPE":"U","NORAD_CAT_ID":28222,"ELEMENT_SET_NO":999,"REV_AT_EPOCH":20692,"BSTAR":0.00058652,"MEAN_MOTION_DOT":0.00061685,"MEAN_MOTION_DDOT":0},{"OBJECT_NAME":"SL-16 R/B","OBJECT_ID":"2004-021B","EPOCH":"2026-03-26T10:16:24.144672","MEAN_MOTION":14.14593929,"ECCENTRICITY":0.000484,"INCLINATION":71.0005,"RA_OF_ASC_NODE":197.3658,"ARG_OF_PERICENTER":349.4452,"MEAN_ANOMALY":10.6567,"EPHEMERIS_TYPE":0,"CLASSIFICATION_TYPE":"U","NORAD_CAT_ID":28353,"ELEMENT_SET_NO":999,"REV_AT_EPOCH":12520,"BSTAR":7.7697e-5,"MEAN_MOTION_DOT":1.02e-6,"MEAN_MOTION_DDOT":0},{"OBJECT_NAME":"CZ-4B R/B","OBJECT_ID":"2004-035C","EPOCH":"2026-03-26T12:42:53.389440","MEAN_MOTION":15.2934914,"ECCENTRICITY":0.0029967,"INCLINATION":97.3477,"RA_OF_ASC_NODE":119.5717,"ARG_OF_PERICENTER":268.5715,"MEAN_ANOMALY":91.2092,"EPHEMERIS_TYPE":0,"CLASSIFICATION_TYPE":"U","NORAD_CAT_ID":28415,"ELEMENT_SET_NO":999,"REV_AT_EPOCH":18248,"BSTAR":0.00026385,"MEAN_MOTION_DOT":7.535e-5,"MEAN_MOTION_DDOT":0},{"OBJECT_NAME":"CZ-2C R/B","OBJECT_ID":"2004-046B","EPOCH":"2026-03-26T17:37:57.900288","MEAN_MOTION":14.269979,"ECCENTRICITY":0.0140581,"INCLINATION":98.1976,"RA_OF_ASC_NODE":359.6568,"ARG_OF_PERICENTER":104.3458,"MEAN_ANOMALY":257.3377,"EPHEMERIS_TYPE":0,"CLASSIFICATION_TYPE":"U","NORAD_CAT_ID":28480,"ELEMENT_SET_NO":999,"REV_AT_EPOCH":11093,"BSTAR":6.0125e-5,"MEAN_MOTION_DOT":1.23e-6,"MEAN_MOTION_DDOT":0},{"OBJECT_NAME":"ARIANE 5 R/B","OBJECT_ID":"2004-049H","EPOCH":"2026-03-26T11:23:22.826400","MEAN_MOTION":14.85294952,"ECCENTRICITY":0.008297,"INCLINATION":98.2653,"RA_OF_ASC_NODE":254.563,"ARG_OF_PERICENTER":297.0759,"MEAN_ANOMALY":62.2007,"EPHEMERIS_TYPE":0,"CLASSIFICATION_TYPE":"U","NORAD_CAT_ID":28499,"ELEMENT_SET_NO":999,"REV_AT_EPOCH":14828,"BSTAR":9.1877e-5,"MEAN_MOTION_DOT":7.73e-6,"MEAN_MOTION_DDOT":0},{"OBJECT_NAME":"CZ-2D R/B","OBJECT_ID":"2005-024B","EPOCH":"2026-03-26T12:08:04.771392","MEAN_MOTION":15.61656493,"ECCENTRICITY":0.0002821,"INCLINATION":97.3587,"RA_OF_ASC_NODE":101.287,"ARG_OF_PERICENTER":351.1868,"MEAN_ANOMALY":8.934,"EPHEMERIS_TYPE":0,"CLASSIFICATION_TYPE":"U","NORAD_CAT_ID":28738,"ELEMENT_SET_NO":999,"REV_AT_EPOCH":14240,"BSTAR":0.00049081,"MEAN_MOTION_DOT":0.00042277,"MEAN_MOTION_DDOT":0}]
